OSCAR 7 (AO-7)          
1 07530U 74089B   18156.45488366 -.00000029  00000-0  10082-3 0  9994
2 07530 101.6860 123.9511 0012206   0.3226 113.2092 12.53632827993126
UOSAT 2 (UO-11)         
1 14781U 84021B   18156.53015370  .00000065  00000-0  14228-4 0  9993
2 14781  97.6500 193.2430 0009912 116.9941 243.2286 14.83008440821712
LUSAT (LO-19)           
1 20442U 90005G   18156.41150812 -.00000003  00000-0  14973-4 0  9991
2 20442  98.6095  94.9758 0011660 179.4552 180.6647 14.32896981482142
ITAMSAT (IO-26)         
1 22826U 93061D   18156.41562293  .00000009  00000-0  21182-4 0  9999
2 22826  98.8559 132.3574 0009265  17.8451 342.3054 14.30363104287822
RADIO ROSTO (RS-15)     
1 23439U 94085A   18156.61381355 -.00000042  00000-0  73481-5 0  9995
2 23439  64.8189   7.5519 0157536 184.1515 208.3250 11.27566985965266
JAS-2 (FO-29)           
1 24278U 96046B   18156.54687241 -.00000019  00000-0  14042-4 0  9992
2 24278  98.5185 356.9089 0351044 141.0037 221.6987 13.53084046 76411
TECHSAT 1B (GO-32)      
1 25397U 98043D   18156.78642595 -.00000010  00000-0  14851-4 0  9992
2 25397  98.6492  97.4140 0002339  69.8447 290.2983 14.23646467 34100
ISS (ZARYA)             
1 25544U 98067A   18156.25744946  .00002083  00000-0  38687-4 0  9991
2 25544  51.6426  78.1820 0003648 152.1431 305.4885 15.54138401116665
PCSAT (NO-44)           
1 26931U 01043C   18156.46914486 -.00000036  00000-0  17815-4 0  9998
2 26931  67.0518 259.6444 0007721 276.2669  83.7552 14.30506918870876
SAUDISAT 1C (SO-50)     
1 27607U 02058C   18156.35075555  .00000022  00000-0  23942-4 0  9991
2 27607  64.5541 126.2145 0064030 330.9524  28.8021 14.75453853831085
CUTE-1 (CO-55)          
1 27844U 03031E   18156.49005732  .00000048  00000-0  41320-4 0  9999
2 27844  98.6865 165.3191 0010751  50.5480 309.6648 14.22115905774533
CUBESAT XI-IV (CO-57)   
1 27848U 03031J   18156.30537877  .00000040  00000-0  37945-4 0  9993
2 27848  98.6951 165.5312 0010781  60.4057 299.8193 14.21719565774348
MOZHAYETS 4 (RS-22)     
1 27939U 03042A   18156.86823778  .00000114  00000-0  28898-4 0  9994
2 27939  97.9890 296.2958 0013020 178.4748 333.1626 14.66690907785158
CUBESAT XI-V (CO-58)    
1 28895U 05043F   18156.38031427  .00000147  00000-0  37023-4 0  9994
2 28895  97.9078 308.3153 0018259 105.8892 254.4325 14.63550337671911
CUTE-1.7+APD II (CO-65) 
1 32785U 08021C   18156.48249848  .00000234  00000-0  30956-4 0  9990
2 32785  97.5473 169.2194 0014729  78.9314 281.3559 14.88124942547360
DELFI-C3 (DO-64)        
1 32789U 08021G   18156.61792128  .00001441  00000-0  10275-3 0  9995
2 32789  97.5129 211.7204 0011679 345.5609  14.5283 15.06062691550040
SEEDS II (CO-66)        
1 32791U 08021J   18156.52313924  .00000432  00000-0  49455-4 0  9993
2 32791  97.5364 174.5909 0014871  61.0605 299.2103 14.90556975547690
YUBILEINY (RS-30)       
1 32953U 08025A   18156.61048380  .00000008  00000-0 -98086-5 0  9993
2 32953  82.5042  19.8815 0018194 234.2469 125.6919 12.43083196455330
KKS-1 (KISEKI)          
1 33499U 09002H   18156.58138887  .00000135  00000-0  27947-4 0  9990
2 33499  98.3561 337.9715 0008628 337.5749  22.5080 14.75332398503043
SWISSCUBE               
1 35932U 09051B   18156.41158224  .00000144  00000-0  43596-4 0  9995
2 35932  98.5439 307.2901 0006577 241.2443 118.8094 14.56162662461684
BEESAT                  
1 35933U 09051C   18156.37093622  .00000127  00000-0  39681-4 0  9992
2 35933  98.5479 308.7888 0004635 256.1443 103.9239 14.56266299461741
ITUPSAT 1               
1 35935U 09051E   18156.41902664  .00000104  00000-0  35143-4 0  9998
2 35935  98.5594 309.0912 0006996 251.5638 108.4798 14.55443100461589
XIWANG-1 (HOPE-1)       
1 36122U 09072B   18156.53576115 -.00000048  00000-0 -16456-4 0  9996
2 36122 100.0765 171.7158 0008037 135.6295 224.5464 13.16344767407116
JUGNU                   
1 37839U 11058B   18156.20703036  .00000286  00000-0  10813-4 0  9990
2 37839  19.9606 109.8910 0019164 114.8029  14.6406 14.12620514343565
SRMSAT                  
1 37841U 11058D   18156.42488285  .00000296  00000-0  17677-4 0  9999
2 37841  19.9704 157.5327 0011824   2.5650 147.1371 14.10607653343129
M-CUBED & EXP-1 PRIME   
1 37855U 11061F   18156.43602655  .00002392  00000-0  12891-3 0  9999
2 37855 101.7159 212.9607 0176702 117.0695 244.8669 15.04416106359412
STRAND-1                
1 39090U 13009E   18156.60523835  .00000029  00000-0  25487-4 0  9998
2 39090  98.5229   3.1413 0008773 339.5072  20.5761 14.35027633276149
SOMP                    
1 39134U 13015E   18156.41641151  .00001088  00000-0  60944-4 0  9998
2 39134  64.8622 164.9848 0013245 213.9631 146.0649 15.19151314282733
BEESAT-3                
1 39135U 13015F   18156.41898207  .00000673  00000-0  44125-4 0  9997
2 39135  64.8671 178.1824 0022331 236.8086 123.0899 15.16664408282476
BEESAT-2                
1 39136U 13015G   18156.45055626  .00000707  00000-0  46497-4 0  9994
2 39136  64.8683 180.8329 0022486 238.9942 120.8975 15.16135398282421
ZACUBE-1 (TSHEPISOSAT)  
1 39417U 13066B   18156.49051900  .00000183  00000-0  29558-4 0  9994
2 39417  97.5877 185.7541 0058799 191.9793 168.0026 14.80936108245067
GOMX 1                  
1 39430U 13066Q   18156.85131506  .00000252  00000-0  54718-4 0  9993
2 39430  97.6968 134.5411 0151848   6.9362 353.3891 14.59080132241505
EAGLE 2                 
1 39436U 13066W   18138.34627707  .08053685  26553-5  29454-2 0  9995
2 39436  97.7009 274.5525 0018818 286.4398 133.6699 16.24208076248686
CUBEBUG-2 (LO-74)       
1 39440U 13066AA  18156.47771320  .00000199  00000-0  34986-4 0  9991
2 39440  97.6015 172.4098 0079219 232.8923 126.5030 14.75672786242994
FUNCUBE-1 (AO-73)       
1 39444U 13066AE  18156.56015332  .00000270  00000-0  39728-4 0  9998
2 39444  97.5885 187.3305 0058079 187.1318 172.9076 14.81714593243344
UWE-3                   
1 39446U 13066AG  18156.52055652  .00000214  00000-0  35216-4 0  9991
2 39446  97.5931 178.7229 0069358 212.7391 146.9514 14.78206639243391
SPROUT                  
1 39770U 14029E   18156.74929804  .00000823  00000-0  98352-4 0  9990
2 39770  97.8769 257.8909 0007636 240.9584 119.0851 14.86844711218660
UNISAT-6                
1 40012U 14033C   18156.60461286  .00000177  00000-0  34036-4 0  9997
2 40012  97.8099  33.3057 0057161 235.9705 123.6067 14.73820302212991
DUCHIFAT-1              
1 40021U 14033M   18156.57732397  .00000451  00000-0  52296-4 0  9990
2 40021  97.9165  75.2750 0011967 211.5787 148.4714 14.90306437215225
FUNCUBE-3 (EO-79)       
1 40025U 14033R   18156.31790454  .00000302  00000-0  38371-4 0  9997
2 40025  97.9059  71.7403 0011417 219.4937 140.5449 14.88714164215024
NUDT-PHONESAT           
1 40900U 15049B   18156.53160583  .00002248  00000-0  10338-3 0  9998
2 40900  97.4410 164.9184 0015281  72.8044 287.4863 15.21287454150143
ZDPS 2A                 
1 40901U 15049C   18156.86482441  .00000979  00000-0  52709-4 0  9993
2 40901  97.4585 163.3885 0015488  78.7191 281.5782 15.17078296149943
ZDPS 2B                 
1 40902U 15049D   18156.57312791  .00000944  00000-0  51226-4 0  9997
2 40902  97.4485 161.1430 0015542  77.0626 283.2342 15.16872132149885
XW-2A                   
1 40903U 15049E   18156.80943993  .00002128  00000-0  54458-4 0  9994
2 40903  97.3847 191.5513 0015950  73.9142 286.3859 15.40468302152054
KAITUO 1A               
1 40904U 15049F   18156.79005934  .00000522  00000-0  31391-4 0  9994
2 40904  97.4588 160.5884 0016554  78.8239  45.9502 15.15015185149775
2015-049G               
1 40905U 15049G   18156.84753981  .00000446  00000-0  28081-4 0  9990
2 40905  97.4585 158.7375 0017451  72.1420 288.1713 15.13968900149701
XW-2C                   
1 40906U 15049H   18156.82734999  .00000703  00000-0  40857-4 0  9998
2 40906  97.4596 160.5272 0016711  71.5588 288.7460 15.15184509149776
XW-2D                   
1 40907U 15049J   18156.84696777  .00000780  00000-0  44771-4 0  9996
2 40907  97.4571 160.2446 0016051  69.6541 290.6414 15.15335002149782
LILACSAT 2              
1 40908U 15049K   18156.57542820  .00000396  00000-0  25650-4 0  9994
2 40908  97.4683 159.3519 0017686  71.8043 288.5111 15.13507527149617
XW-2F                   
1 40910U 15049M   18156.80449046  .00001194  00000-0  64484-4 0  9994
2 40910  97.4572 161.4971 0016762  65.7896 294.5087 15.16523322149731
XW-2B                   
1 40911U 15049N   18156.73198321  .00000769  00000-0  44263-4 0  9994
2 40911  97.4606 160.6652 0015975  70.5283 289.7673 15.15278787149666
KAITUO 1B               
1 40912U 15049P   18156.55939069  .00001593  00000-0  79751-4 0  9993
2 40912  97.4503 164.0521 0016885  55.6746  42.5758 15.18740441149905
TIANWANG 1C (TW-1C)     
1 40926U 15051B   18156.90675147  .00010600  00000-0  19791-3 0  9990
2 40926  97.1837 199.3025 0008559 327.3261 157.4205 15.48911644151563
TIANWANG 1A (TW-1A)     
1 40928U 15051D   18156.37570968  .00003506  00000-0  93715-4 0  9994
2 40928  97.1855 190.5974 0012092  13.7554 108.2845 15.38669529150967
LAPAN-A2 (IO-86)        
1 40931U 15052B   18155.56261451  .00000752  00000-0  15661-4 0  9997
2 40931   5.9977 240.1776 0013364 191.7844 168.2198 14.76577311145135
E-ST@R-II               
1 41459U 16025D   18156.40565257  .00001180  00000-0  65750-4 0  9999
2 41459  98.1352 218.4720 0171021 187.3856 172.4856 15.04346261115650
AAUSAT 4                
1 41460U 16025E   18156.72772624  .00002978  00000-0  15685-3 0  9991
2 41460  98.1295 219.2925 0162576 182.4223 177.6238 15.05770115115766
NUSAT 1 (LO-87)         
1 41557U 16033B   18156.45009480  .00001476  00000-0  56732-4 0  9991
2 41557  97.4376 240.6896 0013952 198.4745 161.5990 15.27974373112365
BEESAT-4                
1 41619U 16040W   18156.43295885  .00001494  00000-0  68255-4 0  9995
2 41619  97.4156 219.7419 0009875 271.7028  88.3077 15.22095650 96300
ALSAT 1N                
1 41789U 16059G   18156.68204466  .00000126  00000-0  32875-4 0  9995
2 41789  98.1194 219.6269 0029594 122.2364 238.1715 14.64157057 90339
CAS-2T & KS-1Q          
1 41847U 16066G   18156.55992425  .00000035  00000-0  16847-4 0  9993
2 41847  98.7505 185.2150 0365078 279.0723  76.9329 14.37894875 82654
NAYIF-1 (EO-88)         
1 42017U 17008BX  18156.60930677  .00001762  00000-0  74779-4 0  9993
2 42017  97.4487 221.7351 0007999  67.8307 292.3778 15.24414236 72303
LILACSAT-1              
1 42725U 98067ME  18156.83814276  .00022256  00000-0  19414-3 0  9999
2 42725  51.6364  55.9639 0004546 171.1142 188.9936 15.68890438 58739
MAX VALIER SAT          
1 42778U 17036P   18156.60425366  .00001191  00000-0  56226-4 0  9995
2 42778  97.4041 216.5092 0014420 108.4995 251.7809 15.21287930 52745
FOX-1B (AO-91)          
1 43017U 17073E   18156.50133144  .00000669  00000-0  58709-4 0  9999
2 43017  97.7071  88.1177 0258663 309.9232  47.9501 14.78073607 29389
FOX-1D (AO-92)          
1 43137U 18004AC  18156.59802607  .00001176  00000-0  53537-4 0  9991
2 43137  97.5342 219.2669 0010751 134.5184 225.6932 15.22689006 21950
